satname,norad_id,inclination_deg,eccentricity,mean_motion_rev_per_day,perigee_km,apogee_km,l1,l2
STARLINK-1008,44714,53.0529,0.0001304,15.06402017,546.3023114848302,548.1084407765238,1 44714U 19074B   25290.86005348  .00000683  00000+0  64739-4 0  9992,2 44714  53.0529 107.8037 0001304  91.7330 268.3808 15.06402017327220
STARLINK-1010,44716,53.0458,0.0002814,15.89848709,300.8266722913195,304.5866511041222,1 44716U 19074D   25290.91668980  .00244192  00000+0  78245-3 0  9998,2 44716  53.0458  41.5641 0002814  55.3686  81.1981 15.89848709  6045
STARLINK-1011,44717,53.048,0.0002882,15.78757204,332.02640358599274,335.89525677530764,1 44717U 19074E   25290.91668980  .00328536  00000+0  17673-2 0  9991,2 44717  53.0480  97.4513 0002882 189.3287 183.1277 15.78757204  6014
STARLINK-1012,44718,53.0523,0.0001534,15.06416199,546.0995699283467,548.2242516341748,1 44718U 19074F   25290.77159067  .00002307  00000+0  17362-3 0  9998,2 44718  53.0523 108.2026 0001534 106.6375 253.4782 15.06416199327201
STARLINK-1017,44723,53.0497,0.0004643,15.13435675,522.5263408390356,528.9372734133331,1 44723U 19074L   25290.81723727  .00055403  00000+0  30570-2 0  9999,2 44723  53.0497 105.3441 0004643 136.2538 223.8823 15.13435675327250
STARLINK-1019,44724,53.0538,0.0001649,15.06397897,546.0760122978381,548.3599943779391,1 44724U 19074M   25290.76791553  .00001454  00000+0  11651-3 0  9993,2 44724  53.0538 108.2209 0001649  97.4116 262.7060 15.06397897327209
STARLINK-1020,44725,53.0535,0.0001323,15.06407196,546.2732826260963,548.1057240188748,1 44725U 19074N   25290.83978087  .00001715  00000+0  13395-3 0  9998,2 44725  53.0535 127.8974 0001323  91.5807 268.5333 15.06407196326934
STARLINK-1029,44734,53.0391,0.0001075,16.29810265,192.34333216727828,193.75613731524754,1 44734U 19074X   25290.78640755  .04479469  12094-4  97614-3 0  9996,2 44734  53.0391 316.0185 0001075 321.4856  38.6109 16.29810265329316
STARLINK-1031,44736,53.0509,0.0008148,15.44116682,428.4242557992593,439.52527313063,1 44736U 19074Z   25290.91668980  .00262297  00000+0  54578-2 0  9998,2 44736  53.0509 100.6696 0008148 153.8720 325.7299 15.44116682  5834
STARLINK-1036,44741,53.0528,0.000152,15.06402889,546.1500519485771,548.2553552184663,1 44741U 19074AE  25290.86928317  .00002924  00000+0  21507-3 0  9997,2 44741  53.0528 127.7650 0001520  97.4693 262.6468 15.06402889326940
STARLINK-1039,44744,53.0496,0.0007506,15.11661803,525.9455888025514,536.3177829537917,1 44744U 19074AH  25290.85601110  .00045555  00000+0  26466-2 0  9993,2 44744  53.0496 146.3451 0007506 104.0479 256.1347 15.11661803326684
STARLINK-1042,44747,53.0473,0.0003349,15.4232434,436.9681897804003,441.5344764859319,1 44747U 19074AL  25290.72765700  .00030157  00000+0  69578-3 0  9992,2 44747  53.0473  56.8222 0003349  81.7358 278.4026 15.42324340327959
STARLINK-1043,44748,53.0537,0.0002285,15.06344522,545.799114237454,548.9640762354757,1 44748U 19074AM  25290.84165641 -.00012433  00000+0 -81841-3 0  9990,2 44748  53.0537 147.8901 0002285  55.0795 305.0408 15.06344522326665
STARLINK-1046,44751,53.052,0.0001435,15.06405534,546.2008119930633,548.1883821614247,1 44751U 19074AQ  25290.85637816  .00003291  00000+0  23970-3 0  9992,2 44751  53.0520 147.8227 0001435  95.4675 264.6478 15.06405534326661
STARLINK-1047,44752,53.0714,0.00048,15.28823475,476.0366251902469,482.61979179039736,1 44752U 19074AR  25290.83689036  .00015945  00000+0  57281-3 0  9993,2 44752  53.0714  91.4901 0004800 124.0000 236.1455 15.28823475327460
STARLINK-1048,44753,53.0532,0.0001324,15.06400058,546.2944640511005,548.1282963021722,1 44753U 19074AS  25290.81582884  .00001108  00000+0  93247-4 0  9994,2 44753  53.0532 108.0031 0001324  93.0799 267.0342 15.06400058327211
STARLINK-1053,44758,53.0407,2.46e-05,15.58429438,392.0354116658327,392.3685123427631,1 44758U 19074AX  25290.12166939  .00086548  00000+0  11105-2 0  9994,2 44758  53.0407  74.8774 0000246  47.8634 312.2398 15.58429438327638
STARLINK-1054,44759,53.0385,0.0001982,15.80682115,327.18126122196736,329.8397762984041,1 44759U 19074AY  25290.91668980  .00499964  00000+0  24136-2 0  9993,2 44759  53.0385  97.5780 0001982 152.4248 149.9229 15.80682115  6017
STARLINK-1056,44761,53.0366,7.67e-05,15.93173054,292.89813593974486,293.9215512255505,1 44761U 19074BA  25290.91668980  .00405966  75146-4  11330-2 0  9995,2 44761  53.0366  84.5995 0000767  83.6867 189.5928 15.93173054  6001
STARLINK-1060,44765,53.054,5e-05,15.59848989,387.75543236964677,388.43205544403827,1 44765U 19074BE  25290.80353730  .00063271  00000+0  77326-3 0  9990,2 44765  53.0540 117.8665 0000500  55.2689 304.8370 15.59848989327079
STARLINK-1063,44768,53.0531,0.0001375,15.06403081,546.2498810047855,548.1543492614464,1 44768U 19074BH  25290.84531823  .00001873  00000+0  14459-3 0  9996,2 44768  53.0531 147.8732 0001375  89.3025 270.8121 15.06403081326676
STARLINK-1067,44771,53.0529,0.0001446,15.06419083,546.1516749647499,548.154468853546,1 44771U 19074BL  25290.83426238  .00002567  00000+0  19105-3 0  9996,2 44771  53.0529 147.9243 0001446  88.8810 271.2344 15.06419083326660
STARLINK-1068,44772,53.0531,0.0001426,15.06402552,546.2161828478584,548.1912900258903,1 44772U 19074BM  25290.82504874  .00002393  00000+0  17948-3 0  9999,2 44772  53.0531 127.9635 0001426  94.6909 265.4242 15.06402552326934
STARLINK-1112,44925,53.0507,0.0003791,15.52033158,408.2169258383883,413.3642907509975,1 44925U 20001M   25290.91668980  .00179448  00000+0  28692-2 0  9993,2 44925  53.0507 229.8783 0003791 107.4354  54.6131 15.52033158  5906
STARLINK-1114,44927,53.0545,0.0001542,15.06396098,546.1556264403744,548.2914076238285,1 44927U 20001P   25290.66470694  .00000288  00000+0  38267-4 0  9996,2 44927  53.0545 268.6868 0001542  87.8333 272.2833 15.06396098318295
STARLINK-1123,44930,53.0548,0.0001281,15.063899,546.3553720409318,548.1296542722021,1 44930U 20001S   25290.67944413  .00000153  00000+0  29197-4 0  9999,2 44930  53.0548 268.6179 0001281  83.7270 276.3864 15.06389900318295
STARLINK-1144,44933,53.0451,0.001282,15.56621231,388.7577068422743,406.13029653059857,1 44933U 20001V   25290.91668980  .00136801  00000+0  18562-2 0  9993,2 44933  53.0451 207.4155 0012820  49.9309 225.1665 15.56621231  5963
STARLINK-1091,44940,53.0375,0.0002167,15.91099959,297.7566539399386,300.6506133705634,1 44940U 20001AC  25290.91668980  .00313582  47788-4  97675-3 0  9996,2 44940  53.0375 187.2094 0002167 144.5036 316.9568 15.91099959  6041
STARLINK-1094,44941,53.0546,0.0001239,15.06395702,546.3666784021361,548.0827830390072,1 44941U 20001AD  25290.62601061  .00001257  00000+0  10326-3 0  9994,2 44941  53.0546 248.8575 0001239  97.9061 262.2069 15.06395702318561
STARLINK-1096,44942,52.9911,0.0005984,15.84422028,313.94571990203895,321.9596000070733,1 44942U 20001AE  25290.91668980  .00146985  00000+0  62225-3 0  9993,2 44942  52.9911  14.3228 0005984 355.7506  54.6846 15.84422028  6037
STARLINK-1122,44949,53.0547,0.0001588,15.06391423,546.1380958072523,548.3375948581288,1 44949U 20001AM  25290.11735343  .00001240  00000+0  10217-3 0  9998,2 44949  53.0547 251.1352 0001588  86.9744 273.1427 15.06391423318489
STARLINK-1080,44961,53.054,0.0001603,15.06414344,546.0574696662943,548.277722319769,1 44961U 20001AZ  25290.84531558  .00007447  00000+0  51813-3 0  9996,2 44961  53.0540 227.8675 0001603 104.9781 255.1385 15.06414344318889
STARLINK-1090,44968,53.0529,0.000112,15.06397742,546.4428385781302,547.9941182052889,1 44968U 20001BG  25290.25188110  .00002778  00000+0  20534-3 0  9998,2 44968  53.0529 230.5378 0001120  84.0379 276.0738 15.06397742318795
STARLINK-1107,44972,53.0115,0.0006472,15.6325005,373.9035337660098,382.64903512139244,1 44972U 20001BL  25290.91668980  .00155765  00000+0  16411-2 0  9997,2 44972  53.0115 147.8720 0006472 169.9462 323.0503 15.63250050  5983
STARLINK-1132,45044,53.0538,0.0001265,15.0640014,546.3350723201738,548.0871853967747,1 45044U 20006A   25290.87479797  .00000538  00000+0  55004-4 0  9994,2 45044  53.0538 187.7400 0001265 100.2442 259.8690 15.06400140315219
STARLINK-1131,45047,53.0538,0.0001039,15.06387502,546.5303150780264,547.9694104681121,1 45047U 20006D   25290.51918733  .00016074  00000+0  10959-2 0  9996,2 45047  53.0538 209.8761 0001039  99.1092 261.0015 15.06387502314877
STARLINK-1134,45048,53.0382,0.0011878,15.26181009,479.0866815893505,495.39607446419177,1 45048U 20006E   25290.86710867  .00064589  00000+0  24528-2 0  9994,2 45048  53.0382 188.0821 0011878 102.0199 258.2131 15.26181009315216
STARLINK-1156,45054,53.0531,0.0001422,15.06410931,546.1932763992227,548.1628360012055,1 45054U 20006L   25290.75501779  .00013764  00000+0  94084-3 0  9993,2 45054  53.0531 208.2784 0001422  94.0982 266.0170 15.06410931314919
STARLINK-1159,45057,53.0533,0.0001342,15.06395829,546.2949579900132,548.1537249740659,1 45057U 20006P   25290.50436566  .00035655  00000+0  24008-2 0  9991,2 45057  53.0533 209.4030 0001342  94.8755 265.2387 15.06395829314883
STARLINK-1166,45060,53.0538,0.0001273,15.06415955,546.2810679462764,548.044249239354,1 45060U 20006S   25290.78081182  .00014520  00000+0  99125-3 0  9996,2 45060  53.0538 208.1640 0001273  89.1836 270.9298 15.06415955314927
STARLINK-1169,45061,53.0541,0.0001332,15.06423388,546.2174311340186,548.062324894323,1 45061U 20006T   25290.78816713 -.00001836  00000+0 -10432-3 0  9995,2 45061  53.0541 208.1292 0001332 106.7439 253.3696 15.06423388314922
STARLINK-1171,45062,53.054,0.0001191,15.1934076,507.01165023582143,508.6518879966261,1 45062U 20006U   25290.91668980  .01565619  00000+0  66459-1 0  9993,2 45062  53.0540 207.2234 0001191  99.8498 126.3587 15.19340760  5794
STARLINK-1133,45064,53.053,0.0001237,15.06410806,546.3217777827631,548.035100822447,1 45064U 20006W   25290.45460837  .00005357  00000+0  37816-3 0  9999,2 45064  53.0530 189.6248 0001237 103.6909 256.4218 15.06410806315150
